{
  "type": "FeatureCollection",
  "features": [
    {
      "type": "Feature",
      "properties": {
        "norad_id": 37846,
        "name": "GSAT0101 (GALILEO-PFM)",
        "group": "galileo",
        "lat": 56.11622969707372,
        "lon": 91.45204270175101,
        "alt_km": 23222.689033942715,
        "timestamp": "2025-12-27T17:24:57.667937+00:00",
        "meta_object_name": "GSAT0101 (GALILEO-PFM)",
        "meta_object_id": "2011-060A",
        "meta_epoch": "2025-12-24T15:10:54.850656",
        "meta_mean_motion": 1.70475643,
        "meta_eccentricity": 0.00032614,
        "meta_inclination": 57.05,
        "meta_ra_of_asc_node": 346.4975,
        "meta_arg_of_pericenter": 321.0017,
        "meta_mean_anomaly": 38.9828,
        "meta_ephemeris_type": 0,
        "meta_classification_type": "U",
        "meta_norad_cat_id": 37846,
        "meta_element_set_no": 999,
        "meta_rev_at_epoch": 8814,
        "meta_bstar": 0,
        "meta_mean_motion_dot": -6.1e-07,
        "meta_mean_motion_ddot": 0,
        "tle_line1": "1 37846U 11060A   25358.63257929 -.00000061  00000+0  00000+0 0  9998",
        "tle_line2": "2 37846  57.0500 346.4975 0003261 321.0017  38.9828  1.70475643 88147"
      },
      "geometry": {
        "type": "Point",
        "coordinates": [
          91.45204270175101,
          56.11622969707372
        ]
      }
    },
    {
      "type": "Feature",
      "properties": {
        "norad_id": 37847,
        "name": "GSAT0102 (GALILEO-FM2)",
        "group": "galileo",
        "lat": 29.71864307332652,
        "lon": 144.67731700101658,
        "alt_km": 23233.394765635672,
        "timestamp": "2025-12-27T17:24:57.667960+00:00",
        "meta_object_name": "GSAT0102 (GALILEO-FM2)",
        "meta_object_id": "2011-060B",
        "meta_epoch": "2025-12-22T11:58:40.586304",
        "meta_mean_motion": 1.70475957,
        "meta_eccentricity": 0.00051595,
        "meta_inclination": 57.0512,
        "meta_ra_of_asc_node": 346.5558,
        "meta_arg_of_pericenter": 313.0615,
        "meta_mean_anomaly": 223.0229,
        "meta_ephemeris_type": 0,
        "meta_classification_type": "U",
        "meta_norad_cat_id": 37847,
        "meta_element_set_no": 999,
        "meta_rev_at_epoch": 8811,
        "meta_bstar": 0,
        "meta_mean_motion_dot": -6.5e-07,
        "meta_mean_motion_ddot": 0,
        "tle_line1": "1 37847U 11060B   25356.49908086 -.00000065  00000+0  00000+0 0  9992",
        "tle_line2": "2 37847  57.0512 346.5558 0005159 313.0615 223.0229  1.70475957 88119"
      },
      "geometry": {
        "type": "Point",
        "coordinates": [
          144.67731700101658,
          29.71864307332652
        ]
      }
    },
    {
      "type": "Feature",
      "properties": {
        "norad_id": 38857,
        "name": "GSAT0103 (GALILEO-FM3)",
        "group": "galileo",
        "lat": 52.43941278315467,
        "lon": 168.6818803227594,
        "alt_km": 23224.646964868043,
        "timestamp": "2025-12-27T17:24:57.667974+00:00",
        "meta_object_name": "GSAT0103 (GALILEO-FM3)",
        "meta_object_id": "2012-055A",
        "meta_epoch": "2025-12-22T21:54:43.252704",
        "meta_mean_motion": 1.70473351,
        "meta_eccentricity": 0.0002995,
        "meta_inclination": 55.698,
        "meta_ra_of_asc_node": 106.3873,
        "meta_arg_of_pericenter": 269.858,
        "meta_mean_anomaly": 90.0891,
        "meta_ephemeris_type": 0,
        "meta_classification_type": "U",
        "meta_norad_cat_id": 38857,
        "meta_element_set_no": 999,
        "meta_rev_at_epoch": 8200,
        "meta_bstar": 0,
        "meta_mean_motion_dot": 1e-07,
        "meta_mean_motion_ddot": 0,
        "tle_line1": "1 38857U 12055A   25356.91300061  .00000010  00000+0  00000+0 0  9994",
        "tle_line2": "2 38857  55.6980 106.3873 0002995 269.8580  90.0891  1.70473351 82005"
      },
      "geometry": {
        "type": "Point",
        "coordinates": [
          168.6818803227594,
          52.43941278315467
        ]
      }
    },
    {
      "type": "Feature",
      "properties": {
        "norad_id": 40128,
        "name": "GSAT0201 (GALILEO 5)",
        "group": "galileo",
        "lat": 12.077460443350244,
        "lon": 89.75746464628295,
        "alt_km": 17016.767517605374,
        "timestamp": "2025-12-27T17:24:57.667988+00:00",
        "meta_object_name": "GSAT0201 (GALILEO 5)",
        "meta_object_id": "2014-050A",
        "meta_epoch": "2025-12-25T20:43:24.583008",
        "meta_mean_motion": 1.85519608,
        "meta_eccentricity": 0.16491868,
        "meta_inclination": 49.0615,
        "meta_ra_of_asc_node": 280.5285,
        "meta_arg_of_pericenter": 172.7701,
        "meta_mean_anomaly": 189.9925,
        "meta_ephemeris_type": 0,
        "meta_classification_type": "U",
        "meta_norad_cat_id": 40128,
        "meta_element_set_no": 999,
        "meta_rev_at_epoch": 7510,
        "meta_bstar": 0,
        "meta_mean_motion_dot": -4.2e-07,
        "meta_mean_motion_ddot": 0,
        "tle_line1": "1 40128U 14050A   25359.86347897 -.00000042  00000+0  00000+0 0  9996",
        "tle_line2": "2 40128  49.0615 280.5285 1649186 172.7701 189.9925  1.85519608 75101"
      },
      "geometry": {
        "type": "Point",
        "coordinates": [
          89.75746464628295,
          12.077460443350244
        ]
      }
    },
    {
      "type": "Feature",
      "properties": {
        "norad_id": 40129,
        "name": "GSAT0202 (GALILEO 6)",
        "group": "galileo",
        "lat": -4.022149115869481,
        "lon": -83.96161449321357,
        "alt_km": 26221.48560812019,
        "timestamp": "2025-12-27T17:24:57.667999+00:00",
        "meta_object_name": "GSAT0202 (GALILEO 6)",
        "meta_object_id": "2014-050B",
        "meta_epoch": "2025-12-26T02:52:20.313984",
        "meta_mean_motion": 1.85520261,
        "meta_eccentricity": 0.1649751,
        "meta_inclination": 49.0773,
        "meta_ra_of_asc_node": 279.6017,
        "meta_arg_of_pericenter": 173.5155,
        "meta_mean_anomaly": 188.9707,
        "meta_ephemeris_type": 0,
        "meta_classification_type": "U",
        "meta_norad_cat_id": 40129,
        "meta_element_set_no": 999,
        "meta_rev_at_epoch": 7727,
        "meta_bstar": 0,
        "meta_mean_motion_dot": -4.2e-07,
        "meta_mean_motion_ddot": 0,
        "tle_line1": "1 40129U 14050B   25360.11967956 -.00000042  00000+0  00000+0 0  9991",
        "tle_line2": "2 40129  49.0773 279.6017 1649751 173.5155 188.9707  1.85520261 77273"
      },
      "geometry": {
        "type": "Point",
        "coordinates": [
          -83.96161449321357,
          -4.022149115869481
        ]
      }
    },
    {
      "type": "Feature",
      "properties": {
        "norad_id": 40544,
        "name": "GSAT0203 (GALILEO 7)",
        "group": "galileo",
        "lat": -42.89761710053446,
        "lon": -156.3385767165315,
        "alt_km": 23212.58167957917,
        "timestamp": "2025-12-27T17:24:57.668011+00:00",
        "meta_object_name": "GSAT0203 (GALILEO 7)",
        "meta_object_id": "2015-017A",
        "meta_epoch": "2025-12-26T18:10:04.466496",
        "meta_mean_motion": 1.70475666,
        "meta_eccentricity": 0.00064599,
        "meta_inclination": 56.8428,
        "meta_ra_of_asc_node": 346.298,
        "meta_arg_of_pericenter": 275.3549,
        "meta_mean_anomaly": 84.5807,
        "meta_ephemeris_type": 0,
        "meta_classification_type": "U",
        "meta_norad_cat_id": 40544,
        "meta_element_set_no": 999,
        "meta_rev_at_epoch": 6626,
        "meta_bstar": 0,
        "meta_mean_motion_dot": -6.1e-07,
        "meta_mean_motion_ddot": 0,
        "tle_line1": "1 40544U 15017A   25360.75699614 -.00000061  00000+0  00000+0 0  9990",
        "tle_line2": "2 40544  56.8428 346.2980 0006459 275.3549  84.5807  1.70475666 66267"
      },
      "geometry": {
        "type": "Point",
        "coordinates": [
          -156.3385767165315,
          -42.89761710053446
        ]
      }
    },
    {
      "type": "Feature",
      "properties": {
        "norad_id": 40545,
        "name": "GSAT0204 (GALILEO 8)",
        "group": "galileo",
        "lat": 54.86048042759392,
        "lon": 54.47222310446884,
        "alt_km": 23233.63712277318,
        "timestamp": "2025-12-27T17:24:57.668022+00:00",
        "meta_object_name": "GSAT0204 (GALILEO 8)",
        "meta_object_id": "2015-017B",
        "meta_epoch": "2025-12-20T13:26:28.826304",
        "meta_mean_motion": 1.70475697,
        "meta_eccentricity": 0.0006133,
        "meta_inclination": 56.8522,
        "meta_ra_of_asc_node": 346.4847,
        "meta_arg_of_pericenter": 266.5447,
        "meta_mean_anomaly": 93.3948,
        "meta_ephemeris_type": 0,
        "meta_classification_type": "U",
        "meta_norad_cat_id": 40545,
        "meta_element_set_no": 999,
        "meta_rev_at_epoch": 2920,
        "meta_bstar": 0,
        "meta_mean_motion_dot": -7e-07,
        "meta_mean_motion_ddot": 0,
        "tle_line1": "1 40545U 15017B   25354.56005586 -.00000070  00000+0  00000+0 0  9992",
        "tle_line2": "2 40545  56.8522 346.4847 0006133 266.5447  93.3948  1.70475697 29206"
      },
      "geometry": {
        "type": "Point",
        "coordinates": [
          54.47222310446884,
          54.86048042759392
        ]
      }
    }
  ]
}